NORAD_CAT_ID,OBJECT_NAME,OBJECT_TYPE,EPOCH,MEAN_MOTION,ECCENTRICITY,INCLINATION,RA_OF_ASC_NODE,ARG_OF_PERICENTER,MEAN_ANOMALY,BSTAR,MEAN_MOTION_DOT,MEAN_MOTION_DDOT,TLE_LINE0,TLE_LINE1,TLE_LINE2,SEMIMAJOR_AXIS,PERIOD,APOGEE,PERIGEE,DECAYED
51126.0,STARLINK-3386,PAYLOAD,2022-12-15 13:23:00,15.088343300000002,0.0002704,53.216,196.9464,34.0556,326.061,0.00010439,1.373e-05,0.0,0 STARLINK-3386,1 51126U 22005Y   22349.55764274  .00001373  00000-0  10439-3 0  9998,2 51126  53.2160 196.9464 0002704  34.0556 326.0610 15.08834330 51693,6917.898,95.438,541.633,537.8919999999998,0.0
51126.0,STARLINK-3386,PAYLOAD,2022-12-15 19:44:32,15.08842176,0.0002739,53.2161,195.7573,35.0329,325.0843,9.5086e-05,1.225e-05,0.0,0 STARLINK-3386,1 51126U 22005Y   22349.82259865  .00001225  00000-0  95086-4 0  9991,2 51126  53.2161 195.7573 0002739  35.0329 325.0843 15.08842176 50625,6917.874,95.437,541.634,537.844,0.0
51126.0,STARLINK-3386,PAYLOAD,2022-12-15 22:55:18,15.08842956,0.0002762,53.2159,195.1625,34.9387,325.1786,9.856e-05,1.281e-05,0.0,0 STARLINK-3386,1 51126U 22005Y   22349.95507801  .00001281  00000-0  98560-4 0  9993,2 51126  53.2159 195.1625 0002762  34.9387 325.1786 15.08842956 51750,6917.871,95.437,541.6469999999998,537.826,0.0
51126.0,STARLINK-3386,PAYLOAD,2022-12-16 13:13:46,15.08842824,0.0002799,53.2158,192.4862,35.9546,324.1634,0.00012076,1.634e-05,0.0,0 STARLINK-3386,1 51126U 22005Y   22350.55123676  .00001634  00000-0  12076-3 0  9994,2 51126  53.2158 192.4862 0002799  35.9546 324.1634 15.08842824 50732,6917.871999999999,95.437,541.673,537.8,0.0
51126.0,STARLINK-3386,PAYLOAD,2022-12-16 17:59:56,15.08839422,0.0002947,53.2159,191.5938,40.1536,319.9673,2.4173e-05,9.6e-07,0.0,0 STARLINK-3386,1 51126U 22005Y   22350.74996220  .00000096  00000-0  24173-4 0  9991,2 51126  53.2159 191.5938 0002947  40.1536 319.9673 15.08839422 51870,6917.882,95.438,541.786,537.7080000000002,0.0
51126.0,STARLINK-3386,PAYLOAD,2022-12-16 19:35:20,15.08833897,0.0002805,53.216,191.2965,36.172,323.9461,8.725299999999999e-05,1.1e-05,0.0,0 STARLINK-3386,1 51126U 22005Y   22350.81620385  .00001100  00000-0  87253-4 0  9990,2 51126  53.2160 191.2965 0002805  36.1720 323.9461 15.08833897 50770,6917.899,95.438,541.705,537.8240000000002,0.0
51126.0,STARLINK-3386,PAYLOAD,2022-12-17 13:04:34,15.08839194,0.0002855,53.2159,188.0253,37.0156,323.1033,8.711700000000001e-05,1.098e-05,0.0,0 STARLINK-3386,1 51126U 22005Y   22351.54484255  .00001098  00000-0  87117-4 0  9990,2 51126  53.2159 188.0253 0002855  37.0156 323.1033 15.08839194 50885,6917.8830000000025,95.438,541.7230000000002,537.773,0.0
51126.0,STARLINK-3386,PAYLOAD,2022-12-17 19:26:06,15.08842436,0.0002874,53.2159,186.836,37.1526,322.9665,9.4988e-05,1.224e-05,0.0,0 STARLINK-3386,1 51126U 22005Y   22351.80980014  .00001224  00000-0  94988-4 0  9998,2 51126  53.2159 186.8360 0002874  37.1526 322.9665 15.08842436 52033,6917.873000000001,95.437,541.726,537.75,0.0
51126.0,STARLINK-3386,PAYLOAD,2022-12-18 12:55:21,15.08837583,0.0002742,53.2171,183.5658,39.3675,320.7516,6.9706e-05,8.21e-06,0.0,0 STARLINK-3386,1 51126U 22005Y   22352.53844212  .00000821  00000-0  69706-4 0  9990,2 51126  53.2171 183.5658 0002742  39.3675 320.7516 15.08837583 51031,6917.888000000001,95.438,541.65,537.856,0.0
51126.0,STARLINK-3386,PAYLOAD,2022-12-18 19:16:54,15.08832371,0.0002872,53.2176,182.3761,41.5871,318.534,-2.5657e-06,-3.29e-06,0.0,0 STARLINK-3386,1 51126U 22005Y   22352.80340885 -.00000329  00000-0 -25657-5 0  9990,2 51126  53.2176 182.3761 0002872  41.5871 318.5340 15.08832371 52182,6917.904,95.438,541.756,537.7819999999998,0.0
51126.0,STARLINK-3386,PAYLOAD,2022-12-19 06:24:36,15.08830902,0.0002898999999999,53.2171,180.294,42.0547,318.0667,6.2862e-06,-1.89e-06,0.0,0 STARLINK-3386,1 51126U 22005Y   22353.26709201 -.00000189  00000-0  62862-5 0  9994,2 51126  53.2171 180.2940 0002899  42.0547 318.0667 15.08830902 51148,6917.908,95.438,541.779,537.768,0.0
51126.0,STARLINK-3386,PAYLOAD,2022-12-19 19:07:41,15.08836902,0.0002941,53.216,177.9152,41.2537,318.8677,2.0061e-05,3.1e-07,0.0,0 STARLINK-3386,1 51126U 22005Y   22353.79700869  .00000031  00000-0  20061-4 0  9992,2 51126  53.2160 177.9152 0002941  41.2537 318.8677 15.08836902 51226,6917.89,95.438,541.789,537.72,0.0
51126.0,STARLINK-3386,PAYLOAD,2022-12-20 22:09:14,15.08839789,0.0002967,53.216,172.8595,40.6958,319.4256,0.00015263,2.141e-05,0.0,0 STARLINK-3386,1 51126U 22005Y   22354.92308542  .00002141  00000-0  15263-3 0  9991,2 51126  53.2160 172.8595 0002967  40.6958 319.4256 15.08839789 52507,6917.880999999999,95.438,541.799,537.693,0.0
51126.0,STARLINK-3386,PAYLOAD,2022-12-21 12:27:42,15.08846224,0.0002987,53.2159,170.1831,41.6952,318.4268,0.00016989,2.417e-05,0.0,0 STARLINK-3386,1 51126U 22005Y   22355.51924112  .00002417  00000-0  16989-3 0  9996,2 51126  53.2159 170.1831 0002987  41.6952 318.4268 15.08846224 51486,6917.861,95.437,541.793,537.66,0.0
51126.0,STARLINK-3386,PAYLOAD,2022-12-22 04:21:34,15.08836223,0.0003427,53.2159,167.2062,44.2253,315.9012,4.0137e-05,3.5000000000000016e-06,0.0,0 STARLINK-3386,1 51126U 22005Y   22356.18165105  .00000350  00000-0  40137-4 0  9996,2 51126  53.2159 167.2062 0003427  44.2253 315.9012 15.08836223 52693,6917.892,95.438,542.128,537.386,0.0
51126.0,STARLINK-3386,PAYLOAD,2022-12-22 12:18:30,15.08833141,0.0002951,53.2169,165.7237,47.6298,312.4944,-3.2645e-05,-8.08e-06,0.0,0 STARLINK-3386,1 51126U 22005Y   22356.51285367 -.00000808  00000-0 -32645-4 0  9991,2 51126  53.2169 165.7237 0002951  47.6298 312.4944 15.08833141 51633,6917.901,95.438,541.808,537.725,0.0
51126.0,STARLINK-3386,PAYLOAD,2022-12-22 18:40:03,15.08833447,0.0002947,53.217,164.5344,48.2734,311.851,-2.9486e-05,-7.58e-06,0.0,0 STARLINK-3386,1 51126U 22005Y   22356.77781415 -.00000758  00000-0 -29486-4 0  9997,2 51126  53.2170 164.5344 0002947  48.2734 311.8510 15.08833447 51673,6917.9,95.438,541.804,537.727,0.0
51126.0,STARLINK-3386,PAYLOAD,2022-12-23 04:12:21,15.08836952,0.000299,53.2168,162.7497,47.3634,312.761,-7.203e-06,-4.03e-06,0.0,0 STARLINK-3386,1 51126U 22005Y   22357.17525249 -.00000403  00000-0 -72030-5 0  9994,2 51126  53.2168 162.7497 0002990  47.3634 312.7610 15.08836952 51738,6917.89,95.438,541.823,537.686,0.0
51126.0,STARLINK-3386,PAYLOAD,2022-12-23 20:06:12,15.08843718,0.0003013,53.2165,159.7757,48.1934,311.9315,1.8316e-05,3e-08,0.0,0 STARLINK-3386,1 51126U 22005Y   22357.83764826  .00000003  00000-0  18316-4 0  9993,2 51126  53.2165 159.7757 0003013  48.1934 311.9315 15.08843718 52944,6917.869000000002,95.437,541.818,537.65,0.0
51126.0,STARLINK-3386,PAYLOAD,2022-12-24 10:24:40,15.0884081,0.0002956,53.2163,157.0988,49.8806,310.2444,0.00017073,2.43e-05,0.0,0 STARLINK-3386,1 51126U 22005Y   22358.43380764  .00002430  00000-0  17073-3 0  9999,2 51126  53.2163 157.0988 0002956  49.8806 310.2444 15.08840810 51922,6917.878000000002,95.438,541.788,537.698,0.0
51126.0,STARLINK-3386,PAYLOAD,2022-12-24 19:56:59,15.08847909,0.0002997,53.2152,155.3145,49.912,310.2135,0.00031194,4.681e-05,0.0,0 STARLINK-3386,1 51126U 22005Y   22358.83124634  .00004681  00000-0  31194-3 0  9995,2 51126  53.2152 155.3145 0002997  49.9120 310.2135 15.08847909 51980,6917.856,95.437,541.794,537.648,0.0
51126.0,STARLINK-3386,PAYLOAD,2022-12-25 03:53:55,15.08845877,0.0003033,53.2147,153.8275,50.0402,310.0856,0.00021633,3.157e-05,0.0,0 STARLINK-3386,1 51126U 22005Y   22359.16244667  .00003157  00000-0  21633-3 0  9995,2 51126  53.2147 153.8275 0003033  50.0402 310.0856 15.08845877 53149,6917.861999999999,95.437,541.826,537.629,0.0
51126.0,STARLINK-3386,PAYLOAD,2022-12-25 19:47:46,15.08842217,0.0003031,53.2151,150.8544,51.3749,308.7514,7.7632e-05,9.47e-06,0.0,0 STARLINK-3386,1 51126U 22005Y   22359.82484781  .00000947  00000-0  77632-4 0  9996,2 51126  53.2151 150.8544 0003031  51.3749 308.7514 15.08842217 52134,6917.874,95.437,541.835,537.6419999999998,0.0
51126.0,STARLINK-3386,PAYLOAD,2022-12-26 03:44:42,15.08847901,0.0003022,53.2153,149.3675,51.8855,308.2409,0.00014853,2.077e-05,0.0,0 STARLINK-3386,1 51126U 22005Y   22360.15604489  .00002077  00000-0  14853-3 0  9994,2 51126  53.2153 149.3675 0003022  51.8855 308.2409 15.08847901 52185,6917.856,95.437,541.812,537.631,0.0
51126.0,STARLINK-3386,PAYLOAD,2022-12-26 19:38:34,15.08840591,0.0003098,53.2169,146.395,54.7087,305.4195,-1.9977e-06,-3.21e-06,0.0,0 STARLINK-3386,1 51126U 22005Y   22360.81845173 -.00000321  00000-0 -19977-5 0  9990,2 51126  53.2169 146.3950 0003098  54.7087 305.4195 15.08840591 52287,6917.879,95.438,541.887,537.6,0.0
51126.0,STARLINK-3386,PAYLOAD,2022-12-26 21:13:57,15.08843989,0.0002948,53.2161,146.0964,52.7177,307.4083,1.6457000000000002e-05,-2.7e-07,0.0,0 STARLINK-3386,1 51126U 22005Y   22360.88468821 -.00000027  00000-0  16457-4 0  9999,2 51126  53.2161 146.0964 0002948  52.7177 307.4083 15.08843989 53409,6917.868,95.437,541.773,537.694,0.0
51126.0,STARLINK-3386,PAYLOAD,2022-12-27 13:07:47,15.08850621,0.0002972,53.2168,143.1236,54.3976,305.7293,0.00019346,2.793e-05,0.0,0 STARLINK-3386,1 51126U 22005Y   22361.54707862  .00002793  00000-0  19346-3 0  9994,2 51126  53.2168 143.1236 0002972  54.3976 305.7293 15.08850621 53504,6917.848000000001,95.437,541.769,537.6569999999998,0.0
51126.0,STARLINK-3386,PAYLOAD,2022-12-27 19:29:20,15.08850722,0.0002947,53.2166,141.9344,53.6836,306.4428,0.00023738,3.493e-05,0.0,0 STARLINK-3386,1 51126U 22005Y   22361.81204243  .00003493  00000-0  23738-3 0  9997,2 51126  53.2166 141.9344 0002947  53.6836 306.4428 15.08850722 52438,6917.848000000001,95.437,541.751,537.674,0.0
51126.0,STARLINK-3386,PAYLOAD,2022-12-28 09:47:48,15.08841152,0.0002951,53.2157,139.2566,52.3543,307.7717,0.00015236,2.137e-05,0.0,0 STARLINK-3386,1 51126U 22005Y   22362.40820535  .00002137  00000-0  15236-3 0  9999,2 51126  53.2157 139.2566 0002951  52.3543 307.7717 15.08841152 53635,6917.877,95.437,541.783,537.7,0.0
